FENGYUN 1C DEB          
1 30639U 99025ANW 24317.83329596  .00013405  00000+0  57027-2 0  9993
2 30639  99.0189  50.8079 0074090 344.7348  15.1595 14.23837803910815
FENGYUN 1C DEB          
1 30640U 99025ANX 24317.86886334  .00005248  00000+0  28197-2 0  9998
2 30640  99.0892  17.7206 0084999 132.9378 288.3556 14.11498875908683
FENGYUN 1C DEB          
1 30641U 99025ANY 24317.64516135  .00011178  00000+0  14650-2 0  9992
2 30641  98.9456 204.0973 0147625 285.6558 141.4996 14.73155320947168
FENGYUN 1C DEB          
1 30646U 99025APD 24317.81680023  .00003026  00000+0  17732-2 0  9991
2 30646  98.6878 347.2777 0049611  70.7498 289.9029 14.08312069910430
FENGYUN 1C DEB          
1 30647U 99025APE 24317.69544027  .00019524  00000+0  55461-2 0  9992
2 30647  98.9905 216.9018 0036859 286.8937 127.4740 14.45012649922603
FENGYUN 1C DEB          
1 30648U 99025APF 24317.77646130  .00015621  00000+0  49538-2 0  9992
2 30648  98.6535  39.9976 0040287 229.8642 257.7861 14.39624717921659
FENGYUN 1C DEB          
1 30649U 99025APG 24317.81370437  .00010164  00000+0  43376-2 0  9993
2 30649  98.8181  44.1594 0055058 237.3428 241.2136 14.24405559914303
FENGYUN 1C DEB          
1 30650U 99025APH 24317.96607575  .00004563  00000+0  25008-2 0  9995
2 30650  99.2354 341.2679 0074818 215.2336 211.0062 14.10940290907255
FENGYUN 1C DEB          
1 30652U 99025APJ 24317.94077726  .00000353  00000+0  23463-3 0  9991
2 30652  98.8356 354.7371 0007406 300.9373 179.9965 14.07602624911390
FENGYUN 1C DEB          
1 30654U 99025APL 24316.19180660  .00006519  00000+0  33978-2 0  9992
2 30654  99.2411 218.8311 0035525 132.8942 227.5222 14.14549555910688
FENGYUN 1C DEB          
1 30655U 99025APM 24317.55444881  .00074339  00000+0  11088-1 0  9994
2 30655  98.7919 332.4971 0014618  64.2954  56.0518 14.74353861920067
FENGYUN 1C DEB          
1 30656U 99025APN 24317.93727636  .00016839  00000+0  58360-2 0  9995
2 30656  99.0028 104.9914 0037261 173.0699 187.1007 14.35280672914008
FENGYUN 1C DEB          
1 30657U 99025APP 24317.93301740  .00010925  00000+0  41271-2 0  9993
2 30657  98.8457  40.5140 0018422  73.8477 338.9020 14.31355974915698
FENGYUN 1C DEB          
1 30658U 99025APQ 24317.13717412  .00006714  00000+0  52317-2 0  9997
2 30658  98.4648  21.7441 0188848 233.2988 125.0690 13.84606954892046
FENGYUN 1C DEB          
1 30660U 99025APS 24317.19449457  .00021901  00000+0  23806-2 0  9993
2 30660  98.1534  39.6540 0157930 177.3039 215.6456 14.79335266949196
FENGYUN 1C DEB          
1 30661U 99025APT 24317.65971040  .00001120  00000+0  48754-3 0  9994
2 30661  99.4488  98.9860 0145955  79.3888 282.3688 14.20644092922914
FENGYUN 1C DEB          
1 30662U 99025APU 24317.06332247  .00006891  00000+0  33083-2 0  9998
2 30662  99.0811 357.1938 0034129 321.4278  68.7448 14.18904448910201
FENGYUN 1C DEB          
1 30663U 99025APV 24317.60356331  .00020856  00000+0  16088-1 0  9991
2 30663  99.2918 269.7636 0670999  10.6013 350.8483 13.18942069844536
FENGYUN 1C DEB          
1 30665U 99025APX 24317.84716515  .00006580  00000+0  37552-2 0  9991
2 30665  99.1813 274.3246 0070574 226.8125 198.1050 14.08733535904028
FENGYUN 1C DEB          
1 30666U 99025APY 24317.99741854  .00001644  00000+0  10889-2 0  9992
2 30666  98.7905 308.8568 0061663 166.1258 264.0169 14.01926233905878
FENGYUN 1C DEB          
1 30668U 99025AQA 24317.72313015  .00006575  00000+0  37096-2 0  9996
2 30668  99.1565  17.9889 0080760 272.3053 210.8022 14.08970666904853
FENGYUN 1C DEB          
1 30669U 99025AQB 24318.16039844  .00004146  00000+0  26749-2 0  9996
2 30669  98.6166 270.3094 0124405 201.8661 170.0556 13.99712963899366
FENGYUN 1C DEB          
1 30670U 99025AQC 24317.95162128  .00000608  00000+0  33066-3 0  9996
2 30670  98.7682   4.0513 0040104 116.7612   6.5111 14.15558579915665
FENGYUN 1C DEB          
1 30671U 99025AQD 24318.12466250  .00003401  00000+0  24600-2 0  9997
2 30671  99.2846  15.3430 0129076  25.1502  29.1354 13.93346556897141
FENGYUN 1C DEB          
1 30673U 99025AQF 24317.71844444  .00000613  00000+0  41659-3 0  9994
2 30673  98.9761   7.4395 0052435 161.7010 322.3851 14.03132303909916
FENGYUN 1C DEB          
1 30674U 99025AQG 24316.75433597  .00067335  00000+0  16205-1 0  9992
2 30674  98.9666  74.2446 0038134 104.5765 255.9662 14.52448864915297
FENGYUN 1C DEB          
1 30675U 99025AQH 24317.94915465  .00007123  00000+0  31216-2 0  9993
2 30675  98.7764  31.3392 0056726 233.7672 179.9071 14.23101411913006
FENGYUN 1C DEB          
1 30676U 99025AQJ 24317.90008431  .00004277  00000+0  20823-2 0  9995
2 30676  98.3027 189.2842 0482435  37.2241 326.1348 13.71396255885068
FENGYUN 1C DEB          
1 30677U 99025AQK 24318.10356194  .00007274  00000+0  25564-2 0  9998
2 30677  98.2897  12.9143 0069057 307.4013 112.4169 14.33861050923653
FENGYUN 1C DEB          
1 30678U 99025AQL 24317.93865507  .00015170  00000+0  74375-2 0  9990
2 30678  99.0756 262.2073 0080835 278.4831 129.4061 14.16153697902705
FENGYUN 1C DEB          
1 30679U 99025AQM 24315.78308830  .00002263  00000+0  20256-2 0  9991
2 30679  99.4252   4.3184 0172768  45.4600  26.9379 13.78866632890472
FENGYUN 1C DEB          
1 30680U 99025AQN 24317.86974214  .00004795  00000+0  52849-2 0  9994
2 30680  99.5939   4.7842 0327905  80.7250 283.0809 13.51642442869090
FENGYUN 1C DEB          
1 30683U 99025AQR 24317.47317862  .00004768  00000+0  31090-2 0  9999
2 30683  99.4261 311.3011 0145519 221.8393 291.7137 13.97808837900234
FENGYUN 1C DEB          
1 30684U 99025AQS 24316.53684277  .00001480  00000+0  15242-2 0  9992
2 30684  99.5580 357.4028 0241381 207.9979 150.8005 13.65752704883187
FENGYUN 1C DEB          
1 30686U 99025AQU 24318.12839024  .00016437  00000+0  24913-2 0  9996
2 30686  99.0146 103.6340 0163600 263.0415 150.7320 14.65529497938525
FENGYUN 1C DEB          
1 30688U 99025AQW 24318.16018794  .00007832  00000+0  31810-2 0  9998
2 30688  98.7262  24.9158 0016563  39.3851 349.6495 14.27779885916745
FENGYUN 1C DEB          
1 30689U 99025AQX 24317.70021628  .00001934  00000+0  10407-2 0  9994
2 30689  98.6794 310.3014 0112809 145.6793 271.0796 14.10742833913186
FENGYUN 1C DEB          
1 30690U 99025AQY 24318.05468072  .00003493  00000+0  23040-2 0  9992
2 30690  99.1354 241.6126 0107894  81.5171 291.6694 13.99555775902155
FENGYUN 1C DEB          
1 30691U 99025AQZ 24318.02667191  .00003124  00000+0  24612-2 0  9990
2 30691  98.7727 347.2530 0141331 231.3091 146.2254 13.87846314896852
FENGYUN 1C DEB          
1 30693U 99025ARB 24317.96835468  .00001531  00000+0  84812-3 0  9997
2 30693  98.6555 309.5198 0028713 213.0342 146.9037 14.12515335913601
FENGYUN 1C DEB          
1 30694U 99025ARC 24317.72014015  .00015204  00000+0  18536-2 0  9990
2 30694  99.0180 228.2753 0162329  98.0091 263.9569 14.74481734942547
FENGYUN 1C DEB          
1 30696U 99025ARE 24317.39525075  .00006877  00000+0  20344-2 0  9994
2 30696  98.4339   5.4131 0093505 238.3590 132.4397 14.41207922926028
FENGYUN 1C DEB          
1 30697U 99025ARF 24318.12796299  .00005443  00000+0  29609-2 0  9996
2 30697  98.9355  10.9086 0091010 219.6659 167.7011 14.10549337906903
FENGYUN 1C DEB          
1 30699U 99025ARH 24317.90981400  .00012263  00000+0  40329-2 0  9993
2 30699  99.3132  35.3301 0002346 337.5651  22.5430 14.38377201919197
FENGYUN 1C DEB          
1 30700U 99025ARJ 24318.05664267  .00001076  00000+0  47613-3 0  9996
2 30700  98.5870 350.7710 0086525 211.8288 147.7645 14.23236951920021
FENGYUN 1C DEB          
1 30701U 99025ARK 24317.87961204  .00000029  00000+0  38056-4 0  9996
2 30701  98.7758   1.6426 0035287 146.6404  27.5374 14.13896637915399
FENGYUN 1C DEB          
1 30702U 99025ARL 24317.35324090  .00002959  00000+0  19167-2 0  9990
2 30702  98.8046 344.9088 0071269 326.7997  44.4106 14.02235027906182
FENGYUN 1C DEB          
1 30703U 99025ARM 24317.43170078  .00008907  00000+0  41951-2 0  9990
2 30703  99.1118 285.4959 0123798 333.1644 179.8735 14.16174842909387
FENGYUN 1C DEB          
1 30704U 99025ARN 24317.95206917  .00001442  00000+0  95370-3 0  9992
2 30704  98.8639 321.5272 0080786 118.4420 273.2134 14.01541596906081
FENGYUN 1C DEB          
1 30705U 99025ARP 24317.93359469  .00003681  00000+0  31719-2 0  9995
2 30705 102.1895 303.5050 0202165 138.0171 282.6313 13.78575945885635
FENGYUN 1C DEB          
1 30706U 99025ARQ 24317.59001271  .00004722  00000+0  20650-2 0  9992
2 30706  99.1000 192.2621 0026428 185.0816 175.0097 14.24096597919983
FENGYUN 1C DEB          
1 30707U 99025ARR 24317.00588309  .00008387  00000+0  37441-2 0  9998
2 30707  99.4441 336.3931 0031163 112.6997 277.8041 14.22704983911670
FENGYUN 1C DEB          
1 30708U 99025ARS 24314.00753859  .00001033  00000+0  58975-3 0  9997
2 30708  98.7152 333.3877 0007294 252.5973 137.3794 14.11819998912097
FENGYUN 1C DEB          
1 30709U 99025ART 24317.58596031  .00011271  00000+0  59673-2 0  9991
2 30709  99.1299 280.2497 0090302 305.1083  54.1647 14.11768005904492
FENGYUN 1C DEB          
1 30710U 99025ARU 24318.03563625  .00009066  00000+0  59576-2 0  9998
2 30710 102.7490  54.3496 0237715 292.0364 244.4307 13.89443435894131
FENGYUN 1C DEB          
1 30714U 99025ARY 24318.11189742  .00001732  00000+0  11352-2 0  9997
2 30714  98.8761  11.3988 0071643 299.5016 115.4261 14.02172592905163
FENGYUN 1C DEB          
1 30715U 99025ARZ 24317.11987029  .00008585  00000+0  46749-2 0  9992
2 30715  99.0048  18.5856 0070832 204.7591 155.0175 14.11131458905949
FENGYUN 1C DEB          
1 30716U 99025ASA 24318.10191517  .00035003  00000+0  81480-2 0  9998
2 30716  98.8649 103.0539 0038609 229.5095 192.9097 14.54256591920653
FENGYUN 1C DEB          
1 30717U 99025ASB 24317.71696060  .00006045  00000+0  29830-2 0  9993
2 30717  99.0427  15.1576 0049791 304.3330  55.3137 14.17172066909346
FENGYUN 1C DEB          
1 30718U 99025ASC 24316.62582401  .00012241  00000+0  56300-2 0  9993
2 30718  98.9115  27.1815 0061227 213.6380 146.0903 14.20278407911424
